CCSDS_OMM_VERS = 2.0
CREATION_DATE  = 
ORIGINATOR     = 

OBJECT_NAME    = SL-14 R/B
OBJECT_ID      = 1991-042B
CENTER_NAME    = EARTH
REF_FRAME      = TEME
TIME_SYSTEM    = UTC
MEAN_ELEMENT_THEORY = SGP/SGP4

EPOCH          = 2026-01-26T14:54:24.714432
MEAN_MOTION    = 14.81788639
ECCENTRICITY   = .00176967
INCLINATION    = 82.4912
RA_OF_ASC_NODE = 259.6406
ARG_OF_PERICENTER = 24.1379
MEAN_ANOMALY   = 336.0660

EPHEMERIS_TYPE = 0
CLASSIFICATION_TYPE = U
NORAD_CAT_ID   = 21423
ELEMENT_SET_NO = 999
REV_AT_EPOCH   = 84684
BSTAR          = .7478517E-4
MEAN_MOTION_DOT = .615E-5
MEAN_MOTION_DDOT = 0

CCSDS_OMM_VERS = 2.0
CREATION_DATE  = 
ORIGINATOR     = 

OBJECT_NAME    = ERS-1
OBJECT_ID      = 1991-050A
CENTER_NAME    = EARTH
REF_FRAME      = TEME
TIME_SYSTEM    = UTC
MEAN_ELEMENT_THEORY = SGP/SGP4

EPOCH          = 2026-01-26T12:05:22.996896
MEAN_MOTION    = 14.39410602
ECCENTRICITY   = .0031418
INCLINATION    = 98.7898
RA_OF_ASC_NODE = 43.6780
ARG_OF_PERICENTER = 329.1557
MEAN_ANOMALY   = 30.7783

EPHEMERIS_TYPE = 0
CLASSIFICATION_TYPE = U
NORAD_CAT_ID   = 21574
ELEMENT_SET_NO = 999
REV_AT_EPOCH   = 80966
BSTAR          = .20094235E-3
MEAN_MOTION_DOT = .582E-5
MEAN_MOTION_DDOT = 0

CCSDS_OMM_VERS = 2.0
CREATION_DATE  = 
ORIGINATOR     = 

OBJECT_NAME    = ARIANE 40 R/B
OBJECT_ID      = 1991-050F
CENTER_NAME    = EARTH
REF_FRAME      = TEME
TIME_SYSTEM    = UTC
MEAN_ELEMENT_THEORY = SGP/SGP4

EPOCH          = 2026-01-26T14:03:16.928640
MEAN_MOTION    = 14.42859316
ECCENTRICITY   = .00030288
INCLINATION    = 98.2100
RA_OF_ASC_NODE = 80.3844
ARG_OF_PERICENTER = 179.4519
MEAN_ANOMALY   = 180.6675

EPHEMERIS_TYPE = 0
CLASSIFICATION_TYPE = U
NORAD_CAT_ID   = 21610
ELEMENT_SET_NO = 999
REV_AT_EPOCH   = 81292
BSTAR          = .18372199E-3
MEAN_MOTION_DOT = .572E-5
MEAN_MOTION_DDOT = 0

CCSDS_OMM_VERS = 2.0
CREATION_DATE  = 
ORIGINATOR     = 

OBJECT_NAME    = INTERCOSMOS 25
OBJECT_ID      = 1991-086A
CENTER_NAME    = EARTH
REF_FRAME      = TEME
TIME_SYSTEM    = UTC
MEAN_ELEMENT_THEORY = SGP/SGP4

EPOCH          = 2026-01-26T07:15:17.124192
MEAN_MOTION    = 12.11882416
ECCENTRICITY   = .1486215
INCLINATION    = 82.6090
RA_OF_ASC_NODE = 335.6232
ARG_OF_PERICENTER = 208.2740
MEAN_ANOMALY   = 142.9281

EPHEMERIS_TYPE = 0
CLASSIFICATION_TYPE = U
NORAD_CAT_ID   = 21819
ELEMENT_SET_NO = 999
REV_AT_EPOCH   = 49155
BSTAR          = .39426E-3
MEAN_MOTION_DOT = .1999E-4
MEAN_MOTION_DDOT = 0

CCSDS_OMM_VERS = 2.0
CREATION_DATE  = 
ORIGINATOR     = 

OBJECT_NAME    = SL-8 R/B
OBJECT_ID      = 1992-008B
CENTER_NAME    = EARTH
REF_FRAME      = TEME
TIME_SYSTEM    = UTC
MEAN_ELEMENT_THEORY = SGP/SGP4

EPOCH          = 2026-01-26T11:54:16.826112
MEAN_MOTION    = 13.75968384
ECCENTRICITY   = .00333415
INCLINATION    = 82.9285
RA_OF_ASC_NODE = 299.1632
ARG_OF_PERICENTER = 252.1645
MEAN_ANOMALY   = 281.9126

EPHEMERIS_TYPE = 0
CLASSIFICATION_TYPE = U
NORAD_CAT_ID   = 21876
ELEMENT_SET_NO = 999
REV_AT_EPOCH   = 70361
BSTAR          = .80447038E-4
MEAN_MOTION_DOT = .93E-6
MEAN_MOTION_DDOT = 0

CCSDS_OMM_VERS = 2.0
CREATION_DATE  = 
ORIGINATOR     = 

OBJECT_NAME    = SL-8 R/B
OBJECT_ID      = 1992-020B
CENTER_NAME    = EARTH
REF_FRAME      = TEME
TIME_SYSTEM    = UTC
MEAN_ELEMENT_THEORY = SGP/SGP4

EPOCH          = 2026-01-26T12:04:38.278848
MEAN_MOTION    = 13.75541934
ECCENTRICITY   = .00300003
INCLINATION    = 82.9308
RA_OF_ASC_NODE = 185.0760
ARG_OF_PERICENTER = 57.1224
MEAN_ANOMALY   = 3.2566

EPHEMERIS_TYPE = 0
CLASSIFICATION_TYPE = U
NORAD_CAT_ID   = 21938
ELEMENT_SET_NO = 999
REV_AT_EPOCH   = 69533
BSTAR          = .18712104E-3
MEAN_MOTION_DOT = .196E-5
MEAN_MOTION_DDOT = 0

CCSDS_OMM_VERS = 2.0
CREATION_DATE  = 
ORIGINATOR     = 

OBJECT_NAME    = USA 81
OBJECT_ID      = 1992-023A
CENTER_NAME    = EARTH
REF_FRAME      = TEME
TIME_SYSTEM    = UTC
MEAN_ELEMENT_THEORY = SGP/SGP4

EPOCH          = 2026-01-26T11:08:52.649664
MEAN_MOTION    = 14.32349969
ECCENTRICITY   = .00022111
INCLINATION    = 85.0114
RA_OF_ASC_NODE = 155.7859
ARG_OF_PERICENTER = 113.4177
MEAN_ANOMALY   = 246.7248

EPHEMERIS_TYPE = 0
CLASSIFICATION_TYPE = U
NORAD_CAT_ID   = 21949
ELEMENT_SET_NO = 999
REV_AT_EPOCH   = 8874
BSTAR          = .1297482E-3
MEAN_MOTION_DOT = .37E-5
MEAN_MOTION_DDOT = 0

CCSDS_OMM_VERS = 2.0
CREATION_DATE  = 
ORIGINATOR     = 

OBJECT_NAME    = COSMOS 2219
OBJECT_ID      = 1992-076A
CENTER_NAME    = EARTH
REF_FRAME      = TEME
TIME_SYSTEM    = UTC
MEAN_ELEMENT_THEORY = SGP/SGP4

EPOCH          = 2026-01-26T12:03:18.763200
MEAN_MOTION    = 14.14080516
ECCENTRICITY   = .00207941
INCLINATION    = 71.0610
RA_OF_ASC_NODE = 106.2646
ARG_OF_PERICENTER = 265.6444
MEAN_ANOMALY   = 94.2303

EPHEMERIS_TYPE = 0
CLASSIFICATION_TYPE = U
NORAD_CAT_ID   = 22219
ELEMENT_SET_NO = 999
REV_AT_EPOCH   = 71241
BSTAR          = -.7737881E-4
MEAN_MOTION_DOT = -.195E-5
MEAN_MOTION_DDOT = 0

CCSDS_OMM_VERS = 2.0
CREATION_DATE  = 
ORIGINATOR     = 

OBJECT_NAME    = SL-16 R/B
OBJECT_ID      = 1992-076B
CENTER_NAME    = EARTH
REF_FRAME      = TEME
TIME_SYSTEM    = UTC
MEAN_ELEMENT_THEORY = SGP/SGP4

EPOCH          = 2026-01-26T14:38:37.728096
MEAN_MOTION    = 14.16850341
ECCENTRICITY   = .0012292
INCLINATION    = 70.9994
RA_OF_ASC_NODE = 277.0150
ARG_OF_PERICENTER = 169.5185
MEAN_ANOMALY   = 206.4114

EPHEMERIS_TYPE = 0
CLASSIFICATION_TYPE = U
NORAD_CAT_ID   = 22220
ELEMENT_SET_NO = 999
REV_AT_EPOCH   = 71587
BSTAR          = -.14783735E-4
MEAN_MOTION_DOT = -.78E-6
MEAN_MOTION_DDOT = 0

CCSDS_OMM_VERS = 2.0
CREATION_DATE  = 
ORIGINATOR     = 

OBJECT_NAME    = COSMOS 2221
OBJECT_ID      = 1992-080A
CENTER_NAME    = EARTH
REF_FRAME      = TEME
TIME_SYSTEM    = UTC
MEAN_ELEMENT_THEORY = SGP/SGP4

EPOCH          = 2026-01-26T07:13:49.480896
MEAN_MOTION    = 14.96006128
ECCENTRICITY   = .001402
INCLINATION    = 82.5063
RA_OF_ASC_NODE = 319.6705
ARG_OF_PERICENTER = 342.2439
MEAN_ANOMALY   = 17.8291

EPHEMERIS_TYPE = 0
CLASSIFICATION_TYPE = U
NORAD_CAT_ID   = 22236
ELEMENT_SET_NO = 999
REV_AT_EPOCH   = 77445
BSTAR          = .32355E-3
MEAN_MOTION_DOT = .366E-4
MEAN_MOTION_DDOT = 0

CCSDS_OMM_VERS = 2.0
CREATION_DATE  = 
ORIGINATOR     = 

OBJECT_NAME    = SL-16 R/B
OBJECT_ID      = 1992-093B
CENTER_NAME    = EARTH
REF_FRAME      = TEME
TIME_SYSTEM    = UTC
MEAN_ELEMENT_THEORY = SGP/SGP4

EPOCH          = 2026-01-26T14:52:49.169856
MEAN_MOTION    = 14.15443639
ECCENTRICITY   = .00045884
INCLINATION    = 71.0220
RA_OF_ASC_NODE = 92.5851
ARG_OF_PERICENTER = 339.1267
MEAN_ANOMALY   = 20.9668

EPHEMERIS_TYPE = 0
CLASSIFICATION_TYPE = U
NORAD_CAT_ID   = 22285
ELEMENT_SET_NO = 999
REV_AT_EPOCH   = 70720
BSTAR          = .17991895E-4
MEAN_MOTION_DOT = -.12E-6
MEAN_MOTION_DDOT = 0

CCSDS_OMM_VERS = 2.0
CREATION_DATE  = 
ORIGINATOR     = 

OBJECT_NAME    = COSMOS 2228
OBJECT_ID      = 1992-094A
CENTER_NAME    = EARTH
REF_FRAME      = TEME
TIME_SYSTEM    = UTC
MEAN_ELEMENT_THEORY = SGP/SGP4

EPOCH          = 2026-01-26T14:42:14.290560
MEAN_MOTION    = 14.96986292
ECCENTRICITY   = .00196627
INCLINATION    = 82.5175
RA_OF_ASC_NODE = 277.5984
ARG_OF_PERICENTER = 83.6982
MEAN_ANOMALY   = 276.6479

EPHEMERIS_TYPE = 0
CLASSIFICATION_TYPE = U
NORAD_CAT_ID   = 22286
ELEMENT_SET_NO = 999
REV_AT_EPOCH   = 76976
BSTAR          = .2539139E-3
MEAN_MOTION_DOT = .2957E-4
MEAN_MOTION_DDOT = 0

