SL-14 R/B               
1 21423U 91042B   26026.62111938  .00000615  00000+0  74785-4 0  9991
2 21423  82.4912 259.6406 0017696  24.1379 336.0660 14.81788639846846
ERS-1                   
1 21574U 91050A   26026.50373839  .00000582  00000+0  20094-3 0  9990
2 21574  98.7898  43.6780 0031418 329.1557  30.7783 14.39410602809664
ARIANE 40 R/B           
1 21610U 91050F   26026.58561260  .00000572  00000+0  18372-3 0  9991
2 21610  98.2100  80.3844 0003028 179.4519 180.6675 14.42859316812926
INTERCOSMOS 25          
1 21819U 91086A   26026.30228153  .00001999  00000+0  39426-3 0  9999
2 21819  82.6090 335.6232 1486215 208.2740 142.9281 12.11882416491557
SL-8 R/B                
1 21876U 92008B   26026.49602808  .00000093  00000+0  80447-4 0  9994
2 21876  82.9285 299.1632 0033341 252.1645 281.9126 13.75968384703611
SL-8 R/B                
1 21938U 92020B   26026.50322082  .00000196  00000+0  18712-3 0  9991
2 21938  82.9308 185.0760 0030000  57.1224   3.2566 13.75541934695336
USA 81                  
1 21949U 92023A   26026.46449826  .00000370  00000+0  12975-3 0  9996
2 21949  85.0114 155.7859 0002211 113.4177 246.7248 14.32349969 88746
COSMOS 2219             
1 22219U 92076A   26026.50230050 -.00000195  00000+0 -77379-4 0  9994
2 22219  71.0610 106.2646 0020794 265.6444  94.2303 14.14080516712417
SL-16 R/B               
1 22220U 92076B   26026.61015889 -.00000078  00000+0 -14784-4 0  9990
2 22220  70.9994 277.0150 0012292 169.5185 206.4114 14.16850341715870
COSMOS 2221             
1 22236U 92080A   26026.30126714  .00003660  00000+0  32355-3 0  9999
2 22236  82.5063 319.6705 0014020 342.2439  17.8291 14.96006128774458
SL-16 R/B               
1 22285U 92093B   26026.62001354 -.00000012  00000+0  17992-4 0  9994
2 22285  71.0220  92.5851 0004588 339.1267  20.9668 14.15443639707206
COSMOS 2228             
1 22286U 92094A   26026.61266540  .00002957  00000+0  25391-3 0  9995
2 22286  82.5175 277.5984 0019662  83.6982 276.6479 14.96986292769764
